{"type": "FeatureCollection", "features": [ {"type": "Feature", "properties": {"norad_id": 37834, "name": "INTELSAT 18 (IS-18)", "group": "intelsat", "lat": 0.03808100751981116, "lon": 41.92196606342416, "alt_km": 35789.41032869467, "timestamp": "2025-12-18T08:58:43.059693+00:00", "meta": {"OBJECT_NAME": "INTELSAT 18 (IS-18)", "OBJECT_ID": "2011-056A", "EPOCH": "2025-12-17T21:01:51.288384", "MEAN_MOTION": 1.00273019, "ECCENTRICITY": 0.0001724, "INCLINATION": 0.0252, "RA_OF_ASC_NODE": 286.8744, "ARG_OF_PERICENTER": 354.6111, "MEAN_ANOMALY": 300.7224, "EPHEMERIS_TYPE": 0, "CLASSIFICATION_TYPE": "U", "NORAD_CAT_ID": 37834, "ELEMENT_SET_NO": 999, "REV_AT_EPOCH": 5199, "BSTAR": 0, "MEAN_MOTION_DOT": 7.8e-07, "MEAN_MOTION_DDOT": 0}, "tle": {"line1": "1 37834U 11056A   25351.87628806  .00000078  00000+0  00000+0 0  9992", "line2": "2 37834   0.0252 286.8744 0001724 354.6111 300.7224  1.00273019 51995"}}, "geometry": {"type": "Point", "coordinates": [41.92196606342416, 0.03808100751981116]}}, {"type": "Feature", "properties": {"norad_id": 38098, "name": "INTELSAT 22 (IS-22)", "group": "intelsat", "lat": -0.05300242026009906, "lon": -66.00204538837674, "alt_km": 35778.87681476057, "timestamp": "2025-12-18T08:58:43.059705+00:00", "meta": {"OBJECT_NAME": "INTELSAT 22 (IS-22)", "OBJECT_ID": "2012-011A", "EPOCH": "2025-12-17T19:52:03.218592", "MEAN_MOTION": 1.00269011, "ECCENTRICITY": 0.00018974, "INCLINATION": 0.0437, "RA_OF_ASC_NODE": 56.3191, "ARG_OF_PERICENTER": 232.1092, "MEAN_ANOMALY": 168.38, "EPHEMERIS_TYPE": 0, "CLASSIFICATION_TYPE": "U", "NORAD_CAT_ID": 38098, "ELEMENT_SET_NO": 999, "REV_AT_EPOCH": 537, "BSTAR": 0, "MEAN_MOTION_DOT": 0, "MEAN_MOTION_DDOT": 0}, "tle": {"line1": "1 38098U 12011A   25351.82781503  .00000000  00000+0  00000+0 0  9991", "line2": "2 38098   0.0437  56.3191 0001897 232.1092 168.3800  1.00269011  5374"}}, "geometry": {"type": "Point", "coordinates": [-66.00204538837674, -0.05300242026009906]}}, {"type": "Feature", "properties": {"norad_id": 38356, "name": "INTELSAT 19 (IS-19)", "group": "intelsat", "lat": 0.027287371312967885, "lon": 27.954948880163396, "alt_km": 35790.943135213245, "timestamp": "2025-12-18T08:58:43.059717+00:00", "meta": {"OBJECT_NAME": "INTELSAT 19 (IS-19)", "OBJECT_ID": "2012-030A", "EPOCH": "2025-12-17T20:57:51.670080", "MEAN_MOTION": 1.00272131, "ECCENTRICITY": 0.0003172, "INCLINATION": 0.01, "RA_OF_ASC_NODE": 333.2248, "ARG_OF_PERICENTER": 303.143, "MEAN_ANOMALY": 290.8568, "EPHEMERIS_TYPE": 0, "CLASSIFICATION_TYPE": "U", "NORAD_CAT_ID": 38356, "ELEMENT_SET_NO": 999, "REV_AT_EPOCH": 4863, "BSTAR": 0, "MEAN_MOTION_DOT": -3.1e-07, "MEAN_MOTION_DDOT": 0}, "tle": {"line1": "1 38356U 12030A   25351.87351470 -.00000031  00000+0  00000+0 0  9995", "line2": "2 38356   0.0100 333.2248 0003172 303.1430 290.8568  1.00272131 48636"}}, "geometry": {"type": "Point", "coordinates": [27.954948880163396, 0.027287371312967885]}}, {"type": "Feature", "properties": {"norad_id": 38740, "name": "INTELSAT 20 (IS-20)", "group": "intelsat", "lat": -0.020803775741961815, "lon": -69.56085162492025, "alt_km": 35789.90572081303, "timestamp": "2025-12-18T08:58:43.059729+00:00", "meta": {"OBJECT_NAME": "INTELSAT 20 (IS-20)", "OBJECT_ID": "2012-043A", "EPOCH": "2025-12-17T19:52:21.823968", "MEAN_MOTION": 1.00272571, "ECCENTRICITY": 0.000339, "INCLINATION": 0.0036, "RA_OF_ASC_NODE": 37.22, "ARG_OF_PERICENTER": 146.4854, "MEAN_ANOMALY": 269.58, "EPHEMERIS_TYPE": 0, "CLASSIFICATION_TYPE": "U", "NORAD_CAT_ID": 38740, "ELEMENT_SET_NO": 999, "REV_AT_EPOCH": 4893, "BSTAR": 0, "MEAN_MOTION_DOT": 0, "MEAN_MOTION_DDOT": 0}, "tle": {"line1": "1 38740U 12043A   25351.82803037  .00000000  00000+0  00000+0 0  9997", "line2": "2 38740   0.0036  37.2200 0003390 146.4854 269.5800  1.00272571 48933"}}, "geometry": {"type": "Point", "coordinates": [-69.56085162492025, -0.020803775741961815]}}, {"type": "Feature", "properties": {"norad_id": 38749, "name": "INTELSAT 21 (IS-21)", "group": "intelsat", "lat": -0.026252672607328692, "lon": 163.8805628665667, "alt_km": 35786.81938012854, "timestamp": "2025-12-18T08:58:43.059741+00:00", "meta": {"OBJECT_NAME": "INTELSAT 21 (IS-21)", "OBJECT_ID": "2012-045A", "EPOCH": "2025-12-17T13:03:01.628640", "MEAN_MOTION": 1.00269248, "ECCENTRICITY": 0.00018667, "INCLINATION": 0.0326, "RA_OF_ASC_NODE": 281.7984, "ARG_OF_PERICENTER": 331.46, "MEAN_ANOMALY": 330.9223, "EPHEMERIS_TYPE": 0, "CLASSIFICATION_TYPE": "U", "NORAD_CAT_ID": 38749, "ELEMENT_SET_NO": 999, "REV_AT_EPOCH": 4870, "BSTAR": 0, "MEAN_MOTION_DOT": -2.6e-06, "MEAN_MOTION_DDOT": 0}, "tle": {"line1": "1 38749U 12045A   25351.54376885 -.00000260  00000+0  00000+0 0  9992", "line2": "2 38749   0.0326 281.7984 0001866 331.4600 330.9223  1.00269248 48704"}}, "geometry": {"type": "Point", "coordinates": [163.8805628665667, -0.026252672607328692]}}, {"type": "Feature", "properties": {"norad_id": 38867, "name": "INTELSAT 23 (IS-23)", "group": "intelsat", "lat": 0.020830307684837075, "lon": 168.94602887327773, "alt_km": 35785.62154552662, "timestamp": "2025-12-18T08:58:43.059753+00:00", "meta": {"OBJECT_NAME": "INTELSAT 23 (IS-23)", "OBJECT_ID": "2012-057A", "EPOCH": "2025-12-17T09:38:59.623872", "MEAN_MOTION": 1.00273732, "ECCENTRICITY": 3.78e-05, "INCLINATION": 0.0295, "RA_OF_ASC_NODE": 83.0302, "ARG_OF_PERICENTER": 175.0842, "MEAN_ANOMALY": 279.9522, "EPHEMERIS_TYPE": 0, "CLASSIFICATION_TYPE": "U", "NORAD_CAT_ID": 38867, "ELEMENT_SET_NO": 999, "REV_AT_EPOCH": 4813, "BSTAR": 0, "MEAN_MOTION_DOT": -2.6e-06, "MEAN_MOTION_DDOT": 0}, "tle": {"line1": "1 38867U 12057A   25351.40207898 -.00000260  00000+0  00000+0 0  9998", "line2": "2 38867   0.0295  83.0302 0000378 175.0842 279.9522  1.00273732 48138"}}, "geometry": {"type": "Point", "coordinates": [168.94602887327773, 0.020830307684837075]}}, {"type": "Feature", "properties": {"norad_id": 39360, "name": "FM-6", "group": "intelsat", "lat": 0.01756976942885668, "lon": 105.70768940272701, "alt_km": 35783.085486145406, "timestamp": "2025-12-18T08:58:43.059766+00:00", "meta": {"OBJECT_NAME": "FM-6", "OBJECT_ID": "2013-058A", "EPOCH": "2025-12-17T21:20:04.543008", "MEAN_MOTION": 1.00269676, "ECCENTRICITY": 0.00028865, "INCLINATION": 0.0121, "RA_OF_ASC_NODE": 66.4353, "ARG_OF_PERICENTER": 112.057, "MEAN_ANOMALY": 112.1234, "EPHEMERIS_TYPE": 0, "CLASSIFICATION_TYPE": "U", "NORAD_CAT_ID": 39360, "ELEMENT_SET_NO": 999, "REV_AT_EPOCH": 4425, "BSTAR": 0, "MEAN_MOTION_DOT": 8e-08, "MEAN_MOTION_DDOT": 0}, "tle": {"line1": "1 39360U 13058A   25351.88894147  .00000008  00000+0  00000+0 0  9999", "line2": "2 39360   0.0121  66.4353 0002886 112.0570 112.1234  1.00269676 44250"}}, "geometry": {"type": "Point", "coordinates": [105.70768940272701, 0.01756976942885668]}}, {"type": "Feature", "properties": {"norad_id": 40271, "name": "INTELSAT 30 (IS-30)", "group": "intelsat", "lat": 0.03311001557364968, "lon": 126.86303629115532, "alt_km": 35781.3632428647, "timestamp": "2025-12-18T08:58:43.059778+00:00", "meta": {"OBJECT_NAME": "INTELSAT 30 (IS-30)", "OBJECT_ID": "2014-062A", "EPOCH": "2025-12-17T14:35:07.808928", "MEAN_MOTION": 1.00271096, "ECCENTRICITY": 0.00015894, "INCLINATION": 0.0158, "RA_OF_ASC_NODE": 25.3202, "ARG_OF_PERICENTER": 58.6746, "MEAN_ANOMALY": 126.2171, "EPHEMERIS_TYPE": 0, "CLASSIFICATION_TYPE": "U", "NORAD_CAT_ID": 40271, "ELEMENT_SET_NO": 999, "REV_AT_EPOCH": 497, "BSTAR": 0, "MEAN_MOTION_DOT": -1.26e-06, "MEAN_MOTION_DDOT": 0}, "tle": {"line1": "1 40271U 14062A   25351.60772927 -.00000126  00000+0  00000+0 0  9991", "line2": "2 40271   0.0158  25.3202 0001589  58.6746 126.2171  1.00271096  4979"}}, "geometry": {"type": "Point", "coordinates": [126.86303629115532, 0.03311001557364968]}}, {"type": "Feature", "properties": {"norad_id": 40333, "name": "DIRECTV 14", "group": "intelsat", "lat": 0.029225284176642278, "lon": 122.68013482730005, "alt_km": 35784.50381258955, "timestamp": "2025-12-18T08:58:43.059789+00:00", "meta": {"OBJECT_NAME": "DIRECTV 14", "OBJECT_ID": "2014-078B", "EPOCH": "2025-12-17T21:24:49.087584", "MEAN_MOTION": 1.00270651, "ECCENTRICITY": 6.041e-05, "INCLINATION": 0.0191, "RA_OF_ASC_NODE": 340.5733, "ARG_OF_PERICENTER": 183.4155, "MEAN_ANOMALY": 144.7598, "EPHEMERIS_TYPE": 0, "CLASSIFICATION_TYPE": "U", "NORAD_CAT_ID": 40333, "ELEMENT_SET_NO": 999, "REV_AT_EPOCH": 4022, "BSTAR": 0, "MEAN_MOTION_DOT": -1e-06, "MEAN_MOTION_DDOT": 0}, "tle": {"line1": "1 40333U 14078B   25351.89223481 -.00000100  00000+0  00000+0 0  9996", "line2": "2 40333   0.0191 340.5733 0000604 183.4155 144.7598  1.00270651 40226"}}, "geometry": {"type": "Point", "coordinates": [122.68013482730005, 0.029225284176642278]}}, {"type": "Feature", "properties": {"norad_id": 40663, "name": "DIRECTV 15", "group": "intelsat", "lat": 0.0410508786938875, "lon": 119.02366739353069, "alt_km": 35785.42147248397, "timestamp": "2025-12-18T08:58:43.059800+00:00", "meta": {"OBJECT_NAME": "DIRECTV 15", "OBJECT_ID": "2015-026A", "EPOCH": "2025-12-17T21:23:49.183872", "MEAN_MOTION": 1.00270766, "ECCENTRICITY": 2.254e-05, "INCLINATION": 0.0266, "RA_OF_ASC_NODE": 351.1527, "ARG_OF_PERICENTER": 123.4297, "MEAN_ANOMALY": 190.2545, "EPHEMERIS_TYPE": 0, "CLASSIFICATION_TYPE": "U", "NORAD_CAT_ID": 40663, "ELEMENT_SET_NO": 999, "REV_AT_EPOCH": 3864, "BSTAR": 0, "MEAN_MOTION_DOT": 0, "MEAN_MOTION_DDOT": 0}, "tle": {"line1": "1 40663U 15026A   25351.89154148  .00000000  00000+0  00000+0 0  9997", "line2": "2 40663   0.0266 351.1527 0000225 123.4297 190.2545  1.00270766 38642"}}, "geometry": {"type": "Point", "coordinates": [119.02366739353069, 0.0410508786938875]}}]}